[{"OBJECT_NAME":"OBJECT C","OBJECT_ID":"2024-018C","EPOCH":"2026-03-09T23:27:02.912256","MEAN_MOTION":14.40497628,"ECCENTRICITY":0.04251116,"INCLINATION":58.684,"RA_OF_ASC_NODE":211.7369,"ARG_OF_PERICENTER":351.7809,"MEAN_ANOMALY":7.6397,"EPHEMERIS_TYPE":0,"CLASSIFICATION_TYPE":"U","NORAD_CAT_ID":58851,"ELEMENT_SET_NO":999,"REV_AT_EPOCH":11099,"BSTAR":0.00023456096,"MEAN_MOTION_DOT":1.991e-5,"MEAN_MOTION_DDOT":0},{"OBJECT_NAME":"CZ-6A DEB","OBJECT_ID":"2022-151P","EPOCH":"2026-03-09T13:34:27.528096","MEAN_MOTION":14.22173403,"ECCENTRICITY":0.0029683,"INCLINATION":98.8517,"RA_OF_ASC_NODE":102.5425,"ARG_OF_PERICENTER":107.2318,"MEAN_ANOMALY":253.2112,"EPHEMERIS_TYPE":0,"CLASSIFICATION_TYPE":"U","NORAD_CAT_ID":54272,"ELEMENT_SET_NO":999,"REV_AT_EPOCH":17200,"BSTAR":0.00037462,"MEAN_MOTION_DOT":7.89e-6,"MEAN_MOTION_DDOT":0}]
